{
  "fetched_at": "2026-07-21T01:27:06.345833+00:00",
  "satellites": {
    "57166": {
      "name": "Meteor M2-3",
      "tle_line1": "1 57166U 23091A   26201.89459929 -.00000032  00000+0  47772-5 0  9993",
      "tle_line2": "2 57166  98.6064 256.1798 0005087  77.6307 282.5441 14.24049195159312"
    },
    "59051": {
      "name": "Meteor M2-4",
      "tle_line1": "1 59051U 24039A   26201.87721903  .00000021  00000+0  28861-4 0  9997",
      "tle_line2": "2 59051  98.7029 160.7554 0008230  74.7074 285.5013 14.22432608124055"
    },
    "38771": {
      "name": "MetOp-B",
      "tle_line1": "1 38771U 12049A   26201.83643289  .00000040  00000+0  38047-4 0  9995",
      "tle_line2": "2 38771  98.6485 252.6611 0001302 225.3307 134.7765 14.21447431718043"
    },
    "43689": {
      "name": "MetOp-C",
      "tle_line1": "1 43689U 18087A   26201.78356985  .00000032  00000+0  34503-4 0  9999",
      "tle_line2": "2 43689  98.6625 260.7698 0002097  86.5858 273.5559 14.21503807399608"
    },
    "60543": {
      "name": "Arctic Weather Satellite",
      "tle_line1": "1 60543U 24149CD  26201.40008986  .00000335  00000+0  40464-4 0  9996",
      "tle_line2": "2 60543  97.6784 270.9137 0002505  38.3128 321.8268 14.89809697104249"
    }
  }
}